CCSDS_OMM_VERS = 2.0
CREATION_DATE  = 
ORIGINATOR     = 

OBJECT_NAME    = UNKNOWN
OBJECT_ID      = 
CENTER_NAME    = EARTH
REF_FRAME      = TEME
TIME_SYSTEM    = UTC
MEAN_ELEMENT_THEORY = SGP/SGP4

EPOCH          = 2025-12-10T09:55:23.730240
MEAN_MOTION    = 13.82712090
ECCENTRICITY   = .0566283
INCLINATION    = 65.7725
RA_OF_ASC_NODE = 35.2914
ARG_OF_PERICENTER = 308.8038
MEAN_ANOMALY   = 46.3730

EPHEMERIS_TYPE = 0
CLASSIFICATION_TYPE = U
NORAD_CAT_ID   = 81052
ELEMENT_SET_NO = 999
REV_AT_EPOCH   = 59999
BSTAR          = .29502E-2
MEAN_MOTION_DOT = .11222E-3
MEAN_MOTION_DDOT = 0

CCSDS_OMM_VERS = 2.0
CREATION_DATE  = 
ORIGINATOR     = 

OBJECT_NAME    = UNKNOWN
OBJECT_ID      = 
CENTER_NAME    = EARTH
REF_FRAME      = TEME
TIME_SYSTEM    = UTC
MEAN_ELEMENT_THEORY = SGP/SGP4

EPOCH          = 2025-12-11T10:36:17.788320
MEAN_MOTION    = 13.60492120
ECCENTRICITY   = .0066457
INCLINATION    = 100.3826
RA_OF_ASC_NODE = 246.4724
ARG_OF_PERICENTER = 45.1543
MEAN_ANOMALY   = 315.4968

EPHEMERIS_TYPE = 0
CLASSIFICATION_TYPE = U
NORAD_CAT_ID   = 81069
ELEMENT_SET_NO = 999
REV_AT_EPOCH   = 51575
BSTAR          = .75221E-2
MEAN_MOTION_DOT = .5695E-4
MEAN_MOTION_DDOT = 0

CCSDS_OMM_VERS = 2.0
CREATION_DATE  = 
ORIGINATOR     = 

OBJECT_NAME    = UNKNOWN
OBJECT_ID      = 
CENTER_NAME    = EARTH
REF_FRAME      = TEME
TIME_SYSTEM    = UTC
MEAN_ELEMENT_THEORY = SGP/SGP4

EPOCH          = 2025-11-19T21:46:52.452192
MEAN_MOTION    = 11.22438010
ECCENTRICITY   = .0179923
INCLINATION    = 65.1150
RA_OF_ASC_NODE = 295.2969
ARG_OF_PERICENTER = 6.6503
MEAN_ANOMALY   = 18.4737

EPHEMERIS_TYPE = 0
CLASSIFICATION_TYPE = U
NORAD_CAT_ID   = 81078
ELEMENT_SET_NO = 999
REV_AT_EPOCH   = 49206
BSTAR          = .34586E-2
MEAN_MOTION_DOT = .75E-6
MEAN_MOTION_DDOT = 0

CCSDS_OMM_VERS = 2.0
CREATION_DATE  = 
ORIGINATOR     = 

OBJECT_NAME    = UNKNOWN
OBJECT_ID      = 
CENTER_NAME    = EARTH
REF_FRAME      = TEME
TIME_SYSTEM    = UTC
MEAN_ELEMENT_THEORY = SGP/SGP4

EPOCH          = 2025-12-11T12:40:46.401312
MEAN_MOTION    = 7.55238307
ECCENTRICITY   = .3859293
INCLINATION    = 62.8856
RA_OF_ASC_NODE = 20.4210
ARG_OF_PERICENTER = 357.1788
MEAN_ANOMALY   = 1.1875

EPHEMERIS_TYPE = 0
CLASSIFICATION_TYPE = U
NORAD_CAT_ID   = 81111
ELEMENT_SET_NO = 999
REV_AT_EPOCH   = 27185
BSTAR          = .42053E-2
MEAN_MOTION_DOT = .19146E-3
MEAN_MOTION_DDOT = 0

CCSDS_OMM_VERS = 2.0
CREATION_DATE  = 
ORIGINATOR     = 

OBJECT_NAME    = UNKNOWN
OBJECT_ID      = 
CENTER_NAME    = EARTH
REF_FRAME      = TEME
TIME_SYSTEM    = UTC
MEAN_ELEMENT_THEORY = SGP/SGP4

EPOCH          = 2025-12-11T07:35:33.876384
MEAN_MOTION    = 12.92976914
ECCENTRICITY   = .0026475
INCLINATION    = 90.2478
RA_OF_ASC_NODE = 3.9974
ARG_OF_PERICENTER = 36.2399
MEAN_ANOMALY   = 324.0506

EPHEMERIS_TYPE = 0
CLASSIFICATION_TYPE = U
NORAD_CAT_ID   = 81134
ELEMENT_SET_NO = 999
REV_AT_EPOCH   = 46242
BSTAR          = .48813E-3
MEAN_MOTION_DOT = .141E-5
MEAN_MOTION_DDOT = 0

CCSDS_OMM_VERS = 2.0
CREATION_DATE  = 
ORIGINATOR     = 

OBJECT_NAME    = UNKNOWN
OBJECT_ID      = 
CENTER_NAME    = EARTH
REF_FRAME      = TEME
TIME_SYSTEM    = UTC
MEAN_ELEMENT_THEORY = SGP/SGP4

EPOCH          = 2025-12-08T09:35:50.266176
MEAN_MOTION    = 13.75610958
ECCENTRICITY   = .006388
INCLINATION    = 100.4168
RA_OF_ASC_NODE = 184.0291
ARG_OF_PERICENTER = 294.6255
MEAN_ANOMALY   = 64.8246

EPHEMERIS_TYPE = 0
CLASSIFICATION_TYPE = U
NORAD_CAT_ID   = 81161
ELEMENT_SET_NO = 999
REV_AT_EPOCH   = 55553
BSTAR          = .24035E-2
MEAN_MOTION_DOT = .2301E-4
MEAN_MOTION_DDOT = 0

CCSDS_OMM_VERS = 2.0
CREATION_DATE  = 
ORIGINATOR     = 

OBJECT_NAME    = UNKNOWN
OBJECT_ID      = 
CENTER_NAME    = EARTH
REF_FRAME      = TEME
TIME_SYSTEM    = UTC
MEAN_ELEMENT_THEORY = SGP/SGP4

EPOCH          = 2025-12-10T09:18:27.436320
MEAN_MOTION    = 13.81782886
ECCENTRICITY   = .0020587
INCLINATION    = 82.9261
RA_OF_ASC_NODE = 7.9086
ARG_OF_PERICENTER = 218.7627
MEAN_ANOMALY   = 141.2057

EPHEMERIS_TYPE = 0
CLASSIFICATION_TYPE = U
NORAD_CAT_ID   = 81219
ELEMENT_SET_NO = 999
REV_AT_EPOCH   = 60719
BSTAR          = .453E-3
MEAN_MOTION_DOT = .501E-5
MEAN_MOTION_DDOT = 0

CCSDS_OMM_VERS = 2.0
CREATION_DATE  = 
ORIGINATOR     = 

OBJECT_NAME    = UNKNOWN
OBJECT_ID      = 
CENTER_NAME    = EARTH
REF_FRAME      = TEME
TIME_SYSTEM    = UTC
MEAN_ELEMENT_THEORY = SGP/SGP4

EPOCH          = 2025-12-11T11:53:20.524416
MEAN_MOTION    = 14.40757025
ECCENTRICITY   = .0062773
INCLINATION    = 70.5208
RA_OF_ASC_NODE = 279.5256
ARG_OF_PERICENTER = 2.0175
MEAN_ANOMALY   = 358.1198

EPHEMERIS_TYPE = 0
CLASSIFICATION_TYPE = U
NORAD_CAT_ID   = 81228
ELEMENT_SET_NO = 999
REV_AT_EPOCH   = 62591
BSTAR          = .45176E-2
MEAN_MOTION_DOT = .14779E-3
MEAN_MOTION_DDOT = 0

CCSDS_OMM_VERS = 2.0
CREATION_DATE  = 
ORIGINATOR     = 

OBJECT_NAME    = UNKNOWN
OBJECT_ID      = 
CENTER_NAME    = EARTH
REF_FRAME      = TEME
TIME_SYSTEM    = UTC
MEAN_ELEMENT_THEORY = SGP/SGP4

EPOCH          = 2025-12-10T23:01:17.305248
MEAN_MOTION    = 14.01487201
ECCENTRICITY   = .0071877
INCLINATION    = 100.3883
RA_OF_ASC_NODE = 46.7990
ARG_OF_PERICENTER = 78.2189
MEAN_ANOMALY   = 282.7023

EPHEMERIS_TYPE = 0
CLASSIFICATION_TYPE = U
NORAD_CAT_ID   = 81254
ELEMENT_SET_NO = 999
REV_AT_EPOCH   = 61264
BSTAR          = .32509E-2
MEAN_MOTION_DOT = .4972E-4
MEAN_MOTION_DDOT = 0

CCSDS_OMM_VERS = 2.0
CREATION_DATE  = 
ORIGINATOR     = 

OBJECT_NAME    = UNKNOWN
OBJECT_ID      = 
CENTER_NAME    = EARTH
REF_FRAME      = TEME
TIME_SYSTEM    = UTC
MEAN_ELEMENT_THEORY = SGP/SGP4

EPOCH          = 2025-12-11T10:29:23.038080
MEAN_MOTION    = 14.19936085
ECCENTRICITY   = .0207626
INCLINATION    = 98.1300
RA_OF_ASC_NODE = 44.9685
ARG_OF_PERICENTER = 29.2404
MEAN_ANOMALY   = 332.0211

EPHEMERIS_TYPE = 0
CLASSIFICATION_TYPE = U
NORAD_CAT_ID   = 81279
ELEMENT_SET_NO = 999
REV_AT_EPOCH   = 46241
BSTAR          = .59702E-3
MEAN_MOTION_DOT = .1534E-4
MEAN_MOTION_DDOT = 0

CCSDS_OMM_VERS = 2.0
CREATION_DATE  = 
ORIGINATOR     = 

OBJECT_NAME    = UNKNOWN
OBJECT_ID      = 
CENTER_NAME    = EARTH
REF_FRAME      = TEME
TIME_SYSTEM    = UTC
MEAN_ELEMENT_THEORY = SGP/SGP4

EPOCH          = 2025-12-10T12:54:59.438016
MEAN_MOTION    = 13.76705026
ECCENTRICITY   = .0094757
INCLINATION    = 66.7593
RA_OF_ASC_NODE = 301.1285
ARG_OF_PERICENTER = 234.1004
MEAN_ANOMALY   = 240.8371

EPHEMERIS_TYPE = 0
CLASSIFICATION_TYPE = U
NORAD_CAT_ID   = 81301
ELEMENT_SET_NO = 999
REV_AT_EPOCH   = 60605
BSTAR          = .47186E-3
MEAN_MOTION_DOT = .405E-5
MEAN_MOTION_DDOT = 0

CCSDS_OMM_VERS = 2.0
CREATION_DATE  = 
ORIGINATOR     = 

OBJECT_NAME    = UNKNOWN
OBJECT_ID      = 
CENTER_NAME    = EARTH
REF_FRAME      = TEME
TIME_SYSTEM    = UTC
MEAN_ELEMENT_THEORY = SGP/SGP4

EPOCH          = 2025-12-10T09:47:22.795872
MEAN_MOTION    = 14.56533513
ECCENTRICITY   = .0132166
INCLINATION    = 98.7335
RA_OF_ASC_NODE = 41.5733
ARG_OF_PERICENTER = 131.4778
MEAN_ANOMALY   = 241.7212

EPHEMERIS_TYPE = 0
CLASSIFICATION_TYPE = U
NORAD_CAT_ID   = 81311
ELEMENT_SET_NO = 999
REV_AT_EPOCH   = 63925
BSTAR          = .24808E-3
MEAN_MOTION_DOT = .1186E-4
MEAN_MOTION_DDOT = 0

