UNKNOWN                 
1 81052U          25344.41346910  .00011222  00000+0  29502-2 0  9999
2 81052  65.7725  35.2914 0566283 308.8038  46.3730 13.82712090599991
UNKNOWN                 
1 81069U          25345.44187255  .00005695  00000+0  75221-2 0  9992
2 81069 100.3826 246.4724 0066457  45.1543 315.4968 13.60492120515752
UNKNOWN                 
1 81078U          25323.90755153  .00000075  00000+0  34586-2 0  9993
2 81078  65.1150 295.2969 0179923   6.6503  18.4737 11.22438010492060
UNKNOWN                 
1 81111U          25345.52831483  .00019146  00000+0  42053-2 0  9991
2 81111  62.8856  20.4210 3859293 357.1788   1.1875  7.55238307271851
UNKNOWN                 
1 81134U          25345.31636431  .00000141  00000+0  48813-3 0  9995
2 81134  90.2478   3.9974 0026475  36.2399 324.0506 12.92976914462425
UNKNOWN                 
1 81161U          25342.39988734  .00002301  00000+0  24035-2 0  9995
2 81161 100.4168 184.0291 0063880 294.6255  64.8246 13.75610958555530
UNKNOWN                 
1 81219U          25344.38781755  .00000501  00000+0  45300-3 0  9993
2 81219  82.9261   7.9086 0020587 218.7627 141.2057 13.81782886607191
UNKNOWN                 
1 81228U          25345.49537644  .00014779  00000+0  45176-2 0  9994
2 81228  70.5208 279.5256 0062773   2.0175 358.1198 14.40757025625914
UNKNOWN                 
1 81254U          25344.95922807  .00004972  00000+0  32509-2 0  9992
2 81254 100.3883  46.7990 0071877  78.2189 282.7023 14.01487201612646
UNKNOWN                 
1 81279U          25345.43707220  .00001534  00000+0  59702-3 0  9999
2 81279  98.1300  44.9685 0207626  29.2404 332.0211 14.19936085462415
UNKNOWN                 
1 81301U          25344.53818794  .00000405  00000+0  47186-3 0  9993
2 81301  66.7593 301.1285 0094757 234.1004 240.8371 13.76705026606056
UNKNOWN                 
1 81311U          25344.40790273  .00001186  00000+0  24808-3 0  9994
2 81311  98.7335  41.5733 0132166 131.4778 241.7212 14.56533513639254
